{
  "norad_id": 58160,
  "name": "STARLINK-30779",
  "history": [
    {
      "epoch": "2026-03-28T09:52:13.154304Z",
      "apogee_km": 475.9394741699134,
      "perigee_km": 474.46244277310416,
      "latitude_deg": -2.3255689483418666e-05,
      "longitude_deg": 158.9079776730239,
      "height_km": 475.9707747631551,
      "semi_major_axis_km": 6853.3379584715085,
      "eccentricity": 0.00010776,
      "inclination_deg": 53.1601,
      "raan_deg": 132.7949,
      "arg_perigee_deg": 79.9749,
      "mean_anomaly_deg": 280.1373,
      "mean_motion_rev_day": 15.30204726
    }
  ]
}