{"fetched_at":"2026-03-29T02:12:04Z","count":15717,"tles":[{"name":"STARLINK-30779","line1":"1 58160U 23166L   26087.41126336  .00003587  00000+0  13316-3 0  9996","line2":"2 58160  53.1601 132.7949 0001077  79.9749 280.1373 15.30204726136041","category":"Starlink"}]}